PERSEUS-M1              
1 40039U 14033AF  26186.09952361  .00001842  00000+0  17090-3 0  9999
2 40039  97.9646 130.5264 0010309 234.1657 125.8606 14.95692315653312
POLYITAN-1              
1 40042U 14033AJ  26186.06105418  .00032793  00000+0  99713-3 0  9994
2 40042  98.0935 214.0203 0008541  92.3372 267.8847 15.33942082656334
TIGRISAT                
1 40043U 14033AK  26185.36321051  .00002060  00000+0  24134-3 0  9999
2 40043  97.7854 334.9834 0049584  19.9094 340.4041 14.85224756648175
AEROCUBE 6A             
1 40045U 14033AM  26185.92297194  .00008780  00000+0  73232-3 0  9991
2 40045  97.7236 352.6854 0037526 316.1698  43.6548 14.98273627649276
AEROCUBE 6B             
1 40046U 14033AN  26185.70786614  .00009815  00000+0  78734-3 0  9990
2 40046  97.7222 352.3012 0037769 307.3832  52.3954 14.99734337649387
CANX-4                  
1 40055U 14034C   26186.12014602  .00001344  00000+0  17946-3 0  9996
2 40055  98.3098  62.0898 0011871 318.3927  41.6381 14.81299944647187
CANX-5                  
1 40056U 14034D   26185.37534026  .00001146  00000+0  15411-3 0  9995
2 40056  98.3101  61.3623 0011902 321.2001  38.8355 14.81314200637880
UKUBE-1                 
1 40074U 14037F   26185.95047171  .00014502  00000+0  80554-3 0  9992
2 40074  98.4244 191.0920 0003276 104.6577 255.5016 15.13840631651242
BRITE-PL2 (HEWELIUSZ)   
1 40119U 14049B   26186.24822327  .00002652  00000+0  24959-3 0  9992
2 40119  97.9113 298.3892 0014962  53.5962 306.6636 14.94663268644148
AEROCUBE 5C             
1 40965U 15058B   26186.07351650  .00003733  00000+0  32939-3 0  9997
2 40965  64.7653 206.9434 0131672  56.3093 305.0491 14.91534834368327
AEROCUBE 7              
1 40966U 15058C   26186.01858657  .00006450  00000+0  50950-3 0  9993
2 40966  64.7605 188.9588 0121354  54.6697 306.5691 14.95847299368628
FOX-1A (AO-85)          
1 40967U 15058D   26185.72448079  .00003548  00000+0  31797-3 0  9997
2 40967  64.7733 224.4803 0131559  49.7898 311.4638 14.91048256116183
SINOD-D 1               
1 40968U 15058E   26186.06125436  .00006081  00000+0  48016-3 0  9992
2 40968  64.7733 202.9332 0120252  46.0478 315.0480 14.96023800119332
SNAP-3 ALICE            
1 40970U 15058G   26186.03310873  .00205794  00000+0  20116-2 0  9995
2 40970  64.7494  42.0388 0023438 357.0184   3.0820 15.64924295119673
LMRST-SAT               
1 40971U 15058H   26186.08681202  .00003436  00000+0  31030-3 0  9995
2 40971  64.7739 219.7260 0133152  51.6676 309.6316 14.90666707116228
SNAP-3 EDDIE            
1 40972U 15058J   26186.00916353  .00227130  00000+0  21016-2 0  9997
2 40972  64.7406  32.7134 0024180 359.7693   0.3440 15.66206085121811
PROPCUBE 3              
1 40973U 15058K   26186.01142300  .00005425  00000+0  44443-3 0  9993
2 40973  64.7667 196.8417 0125031  52.9270 308.3197 14.94360477117469
BISONSAT                
1 40974U 15058L   26185.24608082  .00021042  00000+0  99022-3 0  9998
2 40974  64.7584 118.4723 0080958  40.4413 320.2690 15.16671744118208
SNAP-3 JIMI             
1 40975U 15058M   26185.96210087  .00011381  00000+0  76483-3 0  9993
2 40975  64.7642 163.5253 0107122  48.3108 312.7115 15.02503647116896
PROPCUBE 1 (FLORA)      
1 40976U 15058N   26185.85671892  .00003094  00000+0  29219-3 0  9994
2 40976  64.7734 240.4711 0131775  54.0396 307.2853 14.89296899118899
SINOD-D 3               
1 40977U 15058P   26185.84514513  .00005141  00000+0  42947-3 0  9998
2 40977  64.7707 220.6749 0120332  51.1355 310.0421 14.94120649117393
RAVAN                   
1 41849U 16067B   26185.92699935  .00097526  00000+0  13595-2 0  9993
2 41849  97.9849  77.5701 0001629 302.2745  57.8350 15.56580303530453
CELTEE 1                
1 41850U 16067C   26185.58915611  .00009856  00000+0  46272-3 0  9997
2 41850  98.0647  53.3426 0001897 123.3801 236.7614 15.19863880528520
OPTICUBE 04             
1 41851U 16067D   26186.17355226  .00003089  00000+0  19531-3 0  9994
2 41851  98.0685  39.3947 0016864  59.8826 300.4071 15.09743515527880
AEROCUBE 8D             
1 41852U 16067E   26185.87730744  .00013286  00000+0  54044-3 0  9991
2 41852  98.0654  57.3945 0004952  81.4117 278.7680 15.24661624528762
AEROCUBE 8C             
1 41853U 16067F   26185.57128329  .00012921  00000+0  52185-3 0  9998
2 41853  98.0528  54.2705 0005368  18.9330 341.2104 15.24906566528716
CORVUS BC2              
1 42846U 17042X   26185.93102179  .00005940  00000+0  40615-3 0  9998
2 42846  97.4086 346.5928 0013948  55.1467 305.1070 15.06412923489730
CORVUS BC1              
1 42847U 17042Y   26185.99008769  .00005510  00000+0  37552-3 0  9994
2 42847  97.4124 347.4755 0012500  33.9009 326.3015 15.06581528489777
MAKERSAT 0              
1 43016U 17073D   26185.74584820  .00032255  00000+0  85667-3 0  9993
2 43016  97.4599  68.4054 0104886 209.6010 149.9270 15.32706077469156
SIRION PATHFINDER-2     
1 43759U 18099B   26185.68900874  .00007924  00000+0  43096-3 0  9995
2 43759  97.4239 234.3310 0007530 231.1212 128.9350 15.14709218415272
